; MegaCity Autonomous Extrusion G-Code
; Generated by SEARU MegaCityPipeline
G21 ; Set units to millimeters
G90 ; Use absolute coordinates
M104 S200 ; Set extruder temp
M140 S60 ; Set bed temp
G28 ; Home all axes
G1 Z5 F5000 ; Lift nozzle
M109 S200 ; Wait for extruder temp
G92 E0 ; Reset extruder

; --- Architectural Walls ---
; Layer 0
G1 Z0.20 F5000
G1 X59.47 Y-38.73 F5000
G1 X96.79 Y-38.73 E1.1196 F1200
G1 X96.79 Y-4.24 E2.1543
G1 X59.47 Y-4.24 E3.2739
G1 X59.47 Y-38.73 E4.3086
G1 X-63.83 Y-7.81 F5000
G1 X-25.26 Y-7.81 E5.4657 F1200
G1 X-25.26 Y34.43 E6.7328
G1 X-63.83 Y34.43 E7.8899
G1 X-63.83 Y-7.81 E9.1570
G1 X-35.01 Y75.63 F5000
G1 X-7.29 Y75.63 E9.9886 F1200
G1 X-7.29 Y100.01 E10.7197
G1 X-35.01 Y100.01 E11.5513
G1 X-35.01 Y75.63 E12.2825
G1 X-7.48 Y24.12 F5000
G1 X17.75 Y24.12 E13.0394 F1200
G1 X17.75 Y75.14 E14.5701
G1 X-7.48 Y75.14 E15.3270
G1 X-7.48 Y24.12 E16.8578
G1 X-57.75 Y73.50 F5000
G1 X-45.77 Y73.50 E17.2171 F1200
G1 X-45.77 Y99.80 E18.0060
G1 X-57.75 Y99.80 E18.3653
G1 X-57.75 Y73.50 E19.1542
G1 X-90.18 Y-73.61 F5000
G1 X-66.40 Y-73.61 E19.8676 F1200
G1 X-66.40 Y-55.33 E20.4161
G1 X-90.18 Y-55.33 E21.1295
G1 X-90.18 Y-73.61 E21.6780
G1 X22.35 Y20.59 F5000
G1 X89.28 Y20.59 E23.6860 F1200
G1 X89.28 Y57.17 E24.7835
G1 X22.35 Y57.17 E26.7915
G1 X22.35 Y20.59 E27.8890
G1 X-23.67 Y-16.60 F5000
G1 X7.44 Y-16.60 E28.8225 F1200
G1 X7.44 Y31.57 E30.2675
G1 X-23.67 Y31.57 E31.2009
G1 X-23.67 Y-16.60 E32.6460
G1 X-33.23 Y92.01 F5000
G1 X-20.49 Y92.01 E33.0282 F1200
G1 X-20.49 Y117.57 E33.7949
G1 X-33.23 Y117.57 E34.1770
G1 X-33.23 Y92.01 E34.9438
G1 X-26.71 Y-1.87 F5000
G1 X-15.59 Y-1.87 E35.2774 F1200
G1 X-15.59 Y14.42 E35.7660
G1 X-26.71 Y14.42 E36.0996
G1 X-26.71 Y-1.87 E36.5882
G1 X-92.98 Y-52.24 F5000
G1 X-63.37 Y-52.24 E37.4765 F1200
G1 X-63.37 Y5.34 E39.2039
G1 X-92.98 Y5.34 E40.0922
G1 X-92.98 Y-52.24 E41.8196
G1 X84.89 Y26.65 F5000
G1 X101.64 Y26.65 E42.3221 F1200
G1 X101.64 Y54.17 E43.1477
G1 X84.89 Y54.17 E43.6502
G1 X84.89 Y26.65 E44.4758
G1 X48.84 Y-5.09 F5000
G1 X73.88 Y-5.09 E45.2271 F1200
G1 X73.88 Y14.23 E45.8066
G1 X48.84 Y14.23 E46.5579
G1 X48.84 Y-5.09 E47.1374
G1 X92.76 Y9.33 F5000
G1 X124.40 Y9.33 E48.0866 F1200
G1 X124.40 Y30.15 E48.7113
G1 X92.76 Y30.15 E49.6604
G1 X92.76 Y9.33 E50.2852
G1 X-112.44 Y4.34 F5000
G1 X-51.12 Y4.34 E52.1246 F1200
G1 X-51.12 Y49.69 E53.4849
G1 X-112.44 Y49.69 E55.3243
G1 X-112.44 Y4.34 E56.6846
G1 X-27.80 Y-77.78 F5000
G1 X38.33 Y-77.78 E58.6684 F1200
G1 X38.33 Y-6.59 E60.8042
G1 X-27.80 Y-6.59 E62.7881
G1 X-27.80 Y-77.78 E64.9238
G1 X80.93 Y84.91 F5000
G1 X176.54 Y84.91 E67.7923 F1200
G1 X176.54 Y144.54 E69.5809
G1 X80.93 Y144.54 E72.4495
G1 X80.93 Y84.91 E74.2381
G1 X-16.65 Y74.49 F5000
G1 X32.26 Y74.49 E75.7054 F1200
G1 X32.26 Y117.93 E77.0087
G1 X-16.65 Y117.93 E78.4760
G1 X-16.65 Y74.49 E79.7793
G1 X26.73 Y-99.87 F5000
G1 X123.71 Y-99.87 E82.6887 F1200
G1 X123.71 Y-21.00 E85.0549
G1 X26.73 Y-21.00 E87.9643
G1 X26.73 Y-99.87 E90.3305
G1 X41.80 Y72.79 F5000
G1 X64.60 Y72.79 E91.0146 F1200
G1 X64.60 Y111.53 E92.1770
G1 X41.80 Y111.53 E92.8612
G1 X41.80 Y72.79 E94.0236
; Layer 1
G1 Z0.40 F5000
G1 X59.47 Y-38.73 F5000
G1 X96.79 Y-38.73 E95.1431 F1200
G1 X96.79 Y-4.24 E96.1779
G1 X59.47 Y-4.24 E97.2975
G1 X59.47 Y-38.73 E98.3322
G1 X-63.83 Y-7.81 F5000
G1 X-25.26 Y-7.81 E99.4893 F1200
G1 X-25.26 Y34.43 E100.7564
G1 X-63.83 Y34.43 E101.9135
G1 X-63.83 Y-7.81 E103.1806
G1 X-35.01 Y75.63 F5000
G1 X-7.29 Y75.63 E104.0121 F1200
G1 X-7.29 Y100.01 E104.7433
G1 X-35.01 Y100.01 E105.5749
G1 X-35.01 Y75.63 E106.3060
G1 X-7.48 Y24.12 F5000
G1 X17.75 Y24.12 E107.0629 F1200
G1 X17.75 Y75.14 E108.5937
G1 X-7.48 Y75.14 E109.3506
G1 X-7.48 Y24.12 E110.8814
G1 X-57.75 Y73.50 F5000
G1 X-45.77 Y73.50 E111.2407 F1200
G1 X-45.77 Y99.80 E112.0295
G1 X-57.75 Y99.80 E112.3889
G1 X-57.75 Y73.50 E113.1777
G1 X-90.18 Y-73.61 F5000
G1 X-66.40 Y-73.61 E113.8912 F1200
G1 X-66.40 Y-55.33 E114.4397
G1 X-90.18 Y-55.33 E115.1531
G1 X-90.18 Y-73.61 E115.7016
G1 X22.35 Y20.59 F5000
G1 X89.28 Y20.59 E117.7095 F1200
G1 X89.28 Y57.17 E118.8071
G1 X22.35 Y57.17 E120.8151
G1 X22.35 Y20.59 E121.9126
G1 X-23.67 Y-16.60 F5000
G1 X7.44 Y-16.60 E122.8460 F1200
G1 X7.44 Y31.57 E124.2911
G1 X-23.67 Y31.57 E125.2245
G1 X-23.67 Y-16.60 E126.6696
G1 X-33.23 Y92.01 F5000
G1 X-20.49 Y92.01 E127.0517 F1200
G1 X-20.49 Y117.57 E127.8185
G1 X-33.23 Y117.57 E128.2006
G1 X-33.23 Y92.01 E128.9673
G1 X-26.71 Y-1.87 F5000
G1 X-15.59 Y-1.87 E129.3009 F1200
G1 X-15.59 Y14.42 E129.7896
G1 X-26.71 Y14.42 E130.1232
G1 X-26.71 Y-1.87 E130.6118
G1 X-92.98 Y-52.24 F5000
G1 X-63.37 Y-52.24 E131.5000 F1200
G1 X-63.37 Y5.34 E133.2275
G1 X-92.98 Y5.34 E134.1157
G1 X-92.98 Y-52.24 E135.8432
G1 X84.89 Y26.65 F5000
G1 X101.64 Y26.65 E136.3457 F1200
G1 X101.64 Y54.17 E137.1713
G1 X84.89 Y54.17 E137.6738
G1 X84.89 Y26.65 E138.4994
G1 X48.84 Y-5.09 F5000
G1 X73.88 Y-5.09 E139.2507 F1200
G1 X73.88 Y14.23 E139.8302
G1 X48.84 Y14.23 E140.5815
G1 X48.84 Y-5.09 E141.1610
G1 X92.76 Y9.33 F5000
G1 X124.40 Y9.33 E142.1102 F1200
G1 X124.40 Y30.15 E142.7349
G1 X92.76 Y30.15 E143.6840
G1 X92.76 Y9.33 E144.3087
G1 X-112.44 Y4.34 F5000
G1 X-51.12 Y4.34 E146.1481 F1200
G1 X-51.12 Y49.69 E147.5084
G1 X-112.44 Y49.69 E149.3478
G1 X-112.44 Y4.34 E150.7081
G1 X-27.80 Y-77.78 F5000
G1 X38.33 Y-77.78 E152.6920 F1200
G1 X38.33 Y-6.59 E154.8277
G1 X-27.80 Y-6.59 E156.8116
G1 X-27.80 Y-77.78 E158.9474
G1 X80.93 Y84.91 F5000
G1 X176.54 Y84.91 E161.8159 F1200
G1 X176.54 Y144.54 E163.6045
G1 X80.93 Y144.54 E166.4730
G1 X80.93 Y84.91 E168.2617
G1 X-16.65 Y74.49 F5000
G1 X32.26 Y74.49 E169.7290 F1200
G1 X32.26 Y117.93 E171.0323
G1 X-16.65 Y117.93 E172.4996
G1 X-16.65 Y74.49 E173.8029
G1 X26.73 Y-99.87 F5000
G1 X123.71 Y-99.87 E176.7123 F1200
G1 X123.71 Y-21.00 E179.0785
G1 X26.73 Y-21.00 E181.9879
G1 X26.73 Y-99.87 E184.3540
G1 X41.80 Y72.79 F5000
G1 X64.60 Y72.79 E185.0382 F1200
G1 X64.60 Y111.53 E186.2006
G1 X41.80 Y111.53 E186.8848
G1 X41.80 Y72.79 E188.0472
; Layer 2
G1 Z0.60 F5000
G1 X59.47 Y-38.73 F5000
G1 X96.79 Y-38.73 E189.1667 F1200
G1 X96.79 Y-4.24 E190.2015
G1 X59.47 Y-4.24 E191.3210
G1 X59.47 Y-38.73 E192.3558
G1 X-63.83 Y-7.81 F5000
G1 X-25.26 Y-7.81 E193.5129 F1200
G1 X-25.26 Y34.43 E194.7800
G1 X-63.83 Y34.43 E195.9371
G1 X-63.83 Y-7.81 E197.2042
G1 X-35.01 Y75.63 F5000
G1 X-7.29 Y75.63 E198.0357 F1200
G1 X-7.29 Y100.01 E198.7669
G1 X-35.01 Y100.01 E199.5984
G1 X-35.01 Y75.63 E200.3296
G1 X-7.48 Y24.12 F5000
G1 X17.75 Y24.12 E201.0865 F1200
G1 X17.75 Y75.14 E202.6173
G1 X-7.48 Y75.14 E203.3742
G1 X-7.48 Y24.12 E204.9049
G1 X-57.75 Y73.50 F5000
G1 X-45.77 Y73.50 E205.2642 F1200
G1 X-45.77 Y99.80 E206.0531
G1 X-57.75 Y99.80 E206.4124
G1 X-57.75 Y73.50 E207.2013
G1 X-90.18 Y-73.61 F5000
G1 X-66.40 Y-73.61 E207.9147 F1200
G1 X-66.40 Y-55.33 E208.4632
G1 X-90.18 Y-55.33 E209.1767
G1 X-90.18 Y-73.61 E209.7251
G1 X22.35 Y20.59 F5000
G1 X89.28 Y20.59 E211.7331 F1200
G1 X89.28 Y57.17 E212.8307
G1 X22.35 Y57.17 E214.8386
G1 X22.35 Y20.59 E215.9362
G1 X-23.67 Y-16.60 F5000
G1 X7.44 Y-16.60 E216.8696 F1200
G1 X7.44 Y31.57 E218.3147
G1 X-23.67 Y31.57 E219.2481
G1 X-23.67 Y-16.60 E220.6932
G1 X-33.23 Y92.01 F5000
G1 X-20.49 Y92.01 E221.0753 F1200
G1 X-20.49 Y117.57 E221.8420
G1 X-33.23 Y117.57 E222.2242
G1 X-33.23 Y92.01 E222.9909
G1 X-26.71 Y-1.87 F5000
G1 X-15.59 Y-1.87 E223.3245 F1200
G1 X-15.59 Y14.42 E223.8132
G1 X-26.71 Y14.42 E224.1467
G1 X-26.71 Y-1.87 E224.6354
G1 X-92.98 Y-52.24 F5000
G1 X-63.37 Y-52.24 E225.5236 F1200
G1 X-63.37 Y5.34 E227.2511
G1 X-92.98 Y5.34 E228.1393
G1 X-92.98 Y-52.24 E229.8668
G1 X84.89 Y26.65 F5000
G1 X101.64 Y26.65 E230.3693 F1200
G1 X101.64 Y54.17 E231.1949
G1 X84.89 Y54.17 E231.6974
G1 X84.89 Y26.65 E232.5230
G1 X48.84 Y-5.09 F5000
G1 X73.88 Y-5.09 E233.2743 F1200
G1 X73.88 Y14.23 E233.8538
G1 X48.84 Y14.23 E234.6050
G1 X48.84 Y-5.09 E235.1846
G1 X92.76 Y9.33 F5000
G1 X124.40 Y9.33 E236.1337 F1200
G1 X124.40 Y30.15 E236.7584
G1 X92.76 Y30.15 E237.7076
G1 X92.76 Y9.33 E238.3323
G1 X-112.44 Y4.34 F5000
G1 X-51.12 Y4.34 E240.1717 F1200
G1 X-51.12 Y49.69 E241.5320
G1 X-112.44 Y49.69 E243.3714
G1 X-112.44 Y4.34 E244.7317
G1 X-27.80 Y-77.78 F5000
G1 X38.33 Y-77.78 E246.7156 F1200
G1 X38.33 Y-6.59 E248.8513
G1 X-27.80 Y-6.59 E250.8352
G1 X-27.80 Y-77.78 E252.9709
G1 X80.93 Y84.91 F5000
G1 X176.54 Y84.91 E255.8395 F1200
G1 X176.54 Y144.54 E257.6281
G1 X80.93 Y144.54 E260.4966
G1 X80.93 Y84.91 E262.2853
G1 X-16.65 Y74.49 F5000
G1 X32.26 Y74.49 E263.7526 F1200
G1 X32.26 Y117.93 E265.0559
G1 X-16.65 Y117.93 E266.5232
G1 X-16.65 Y74.49 E267.8264
G1 X26.73 Y-99.87 F5000
G1 X123.71 Y-99.87 E270.7359 F1200
G1 X123.71 Y-21.00 E273.1020
G1 X26.73 Y-21.00 E276.0115
G1 X26.73 Y-99.87 E278.3776
G1 X41.80 Y72.79 F5000
G1 X64.60 Y72.79 E279.0618 F1200
G1 X64.60 Y111.53 E280.2242
G1 X41.80 Y111.53 E280.9083
G1 X41.80 Y72.79 E282.0707
; Layer 3
G1 Z0.80 F5000
G1 X59.47 Y-38.73 F5000
G1 X96.79 Y-38.73 E283.1903 F1200
G1 X96.79 Y-4.24 E284.2250
G1 X59.47 Y-4.24 E285.3446
G1 X59.47 Y-38.73 E286.3794
G1 X-63.83 Y-7.81 F5000
G1 X-25.26 Y-7.81 E287.5365 F1200
G1 X-25.26 Y34.43 E288.8036
G1 X-63.83 Y34.43 E289.9607
G1 X-63.83 Y-7.81 E291.2278
G1 X-35.01 Y75.63 F5000
G1 X-7.29 Y75.63 E292.0593 F1200
G1 X-7.29 Y100.01 E292.7905
G1 X-35.01 Y100.01 E293.6220
G1 X-35.01 Y75.63 E294.3532
G1 X-7.48 Y24.12 F5000
G1 X17.75 Y24.12 E295.1101 F1200
G1 X17.75 Y75.14 E296.6409
G1 X-7.48 Y75.14 E297.3977
G1 X-7.48 Y24.12 E298.9285
G1 X-57.75 Y73.50 F5000
G1 X-45.77 Y73.50 E299.2878 F1200
G1 X-45.77 Y99.80 E300.0767
G1 X-57.75 Y99.80 E300.4360
G1 X-57.75 Y73.50 E301.2249
G1 X-90.18 Y-73.61 F5000
G1 X-66.40 Y-73.61 E301.9383 F1200
G1 X-66.40 Y-55.33 E302.4868
G1 X-90.18 Y-55.33 E303.2002
G1 X-90.18 Y-73.61 E303.7487
G1 X22.35 Y20.59 F5000
G1 X89.28 Y20.59 E305.7567 F1200
G1 X89.28 Y57.17 E306.8542
G1 X22.35 Y57.17 E308.8622
G1 X22.35 Y20.59 E309.9598
G1 X-23.67 Y-16.60 F5000
G1 X7.44 Y-16.60 E310.8932 F1200
G1 X7.44 Y31.57 E312.3382
G1 X-23.67 Y31.57 E313.2717
G1 X-23.67 Y-16.60 E314.7167
G1 X-33.23 Y92.01 F5000
G1 X-20.49 Y92.01 E315.0989 F1200
G1 X-20.49 Y117.57 E315.8656
G1 X-33.23 Y117.57 E316.2478
G1 X-33.23 Y92.01 E317.0145
G1 X-26.71 Y-1.87 F5000
G1 X-15.59 Y-1.87 E317.3481 F1200
G1 X-15.59 Y14.42 E317.8367
G1 X-26.71 Y14.42 E318.1703
G1 X-26.71 Y-1.87 E318.6590
G1 X-92.98 Y-52.24 F5000
G1 X-63.37 Y-52.24 E319.5472 F1200
G1 X-63.37 Y5.34 E321.2747
G1 X-92.98 Y5.34 E322.1629
G1 X-92.98 Y-52.24 E323.8903
G1 X84.89 Y26.65 F5000
G1 X101.64 Y26.65 E324.3928 F1200
G1 X101.64 Y54.17 E325.2185
G1 X84.89 Y54.17 E325.7210
G1 X84.89 Y26.65 E326.5466
G1 X48.84 Y-5.09 F5000
G1 X73.88 Y-5.09 E327.2978 F1200
G1 X73.88 Y14.23 E327.8774
G1 X48.84 Y14.23 E328.6286
G1 X48.84 Y-5.09 E329.2081
G1 X92.76 Y9.33 F5000
G1 X124.40 Y9.33 E330.1573 F1200
G1 X124.40 Y30.15 E330.7820
G1 X92.76 Y30.15 E331.7312
G1 X92.76 Y9.33 E332.3559
G1 X-112.44 Y4.34 F5000
G1 X-51.12 Y4.34 E334.1953 F1200
G1 X-51.12 Y49.69 E335.5556
G1 X-112.44 Y49.69 E337.3950
G1 X-112.44 Y4.34 E338.7553
G1 X-27.80 Y-77.78 F5000
G1 X38.33 Y-77.78 E340.7392 F1200
G1 X38.33 Y-6.59 E342.8749
G1 X-27.80 Y-6.59 E344.8588
G1 X-27.80 Y-77.78 E346.9945
G1 X80.93 Y84.91 F5000
G1 X176.54 Y84.91 E349.8630 F1200
G1 X176.54 Y144.54 E351.6517
G1 X80.93 Y144.54 E354.5202
G1 X80.93 Y84.91 E356.3088
G1 X-16.65 Y74.49 F5000
G1 X32.26 Y74.49 E357.7761 F1200
G1 X32.26 Y117.93 E359.0794
G1 X-16.65 Y117.93 E360.5467
G1 X-16.65 Y74.49 E361.8500
G1 X26.73 Y-99.87 F5000
G1 X123.71 Y-99.87 E364.7595 F1200
G1 X123.71 Y-21.00 E367.1256
G1 X26.73 Y-21.00 E370.0350
G1 X26.73 Y-99.87 E372.4012
G1 X41.80 Y72.79 F5000
G1 X64.60 Y72.79 E373.0854 F1200
G1 X64.60 Y111.53 E374.2478
G1 X41.80 Y111.53 E374.9319
G1 X41.80 Y72.79 E376.0943
; Layer 4
G1 Z1.00 F5000
G1 X59.47 Y-38.73 F5000
G1 X96.79 Y-38.73 E377.2139 F1200
G1 X96.79 Y-4.24 E378.2486
G1 X59.47 Y-4.24 E379.3682
G1 X59.47 Y-38.73 E380.4029
G1 X-63.83 Y-7.81 F5000
G1 X-25.26 Y-7.81 E381.5600 F1200
G1 X-25.26 Y34.43 E382.8271
G1 X-63.83 Y34.43 E383.9842
G1 X-63.83 Y-7.81 E385.2513
G1 X-35.01 Y75.63 F5000
G1 X-7.29 Y75.63 E386.0829 F1200
G1 X-7.29 Y100.01 E386.8141
G1 X-35.01 Y100.01 E387.6456
G1 X-35.01 Y75.63 E388.3768
G1 X-7.48 Y24.12 F5000
G1 X17.75 Y24.12 E389.1337 F1200
G1 X17.75 Y75.14 E390.6644
G1 X-7.48 Y75.14 E391.4213
G1 X-7.48 Y24.12 E392.9521
G1 X-57.75 Y73.50 F5000
G1 X-45.77 Y73.50 E393.3114 F1200
G1 X-45.77 Y99.80 E394.1003
G1 X-57.75 Y99.80 E394.4596
G1 X-57.75 Y73.50 E395.2485
G1 X-90.18 Y-73.61 F5000
G1 X-66.40 Y-73.61 E395.9619 F1200
G1 X-66.40 Y-55.33 E396.5104
G1 X-90.18 Y-55.33 E397.2238
G1 X-90.18 Y-73.61 E397.7723
G1 X22.35 Y20.59 F5000
G1 X89.28 Y20.59 E399.7803 F1200
G1 X89.28 Y57.17 E400.8778
G1 X22.35 Y57.17 E402.8858
G1 X22.35 Y20.59 E403.9833
G1 X-23.67 Y-16.60 F5000
G1 X7.44 Y-16.60 E404.9168 F1200
G1 X7.44 Y31.57 E406.3618
G1 X-23.67 Y31.57 E407.2953
G1 X-23.67 Y-16.60 E408.7403
G1 X-33.23 Y92.01 F5000
G1 X-20.49 Y92.01 E409.1225 F1200
G1 X-20.49 Y117.57 E409.8892
G1 X-33.23 Y117.57 E410.2714
G1 X-33.23 Y92.01 E411.0381
G1 X-26.71 Y-1.87 F5000
G1 X-15.59 Y-1.87 E411.3717 F1200
G1 X-15.59 Y14.42 E411.8603
G1 X-26.71 Y14.42 E412.1939
G1 X-26.71 Y-1.87 E412.6826
G1 X-92.98 Y-52.24 F5000
G1 X-63.37 Y-52.24 E413.5708 F1200
G1 X-63.37 Y5.34 E415.2982
G1 X-92.98 Y5.34 E416.1865
G1 X-92.98 Y-52.24 E417.9139
G1 X84.89 Y26.65 F5000
G1 X101.64 Y26.65 E418.4164 F1200
G1 X101.64 Y54.17 E419.2420
G1 X84.89 Y54.17 E419.7445
G1 X84.89 Y26.65 E420.5702
G1 X48.84 Y-5.09 F5000
G1 X73.88 Y-5.09 E421.3214 F1200
G1 X73.88 Y14.23 E421.9009
G1 X48.84 Y14.23 E422.6522
G1 X48.84 Y-5.09 E423.2317
G1 X92.76 Y9.33 F5000
G1 X124.40 Y9.33 E424.1809 F1200
G1 X124.40 Y30.15 E424.8056
G1 X92.76 Y30.15 E425.7548
G1 X92.76 Y9.33 E426.3795
G1 X-112.44 Y4.34 F5000
G1 X-51.12 Y4.34 E428.2189 F1200
G1 X-51.12 Y49.69 E429.5792
G1 X-112.44 Y49.69 E431.4186
G1 X-112.44 Y4.34 E432.7789
G1 X-27.80 Y-77.78 F5000
G1 X38.33 Y-77.78 E434.7627 F1200
G1 X38.33 Y-6.59 E436.8985
G1 X-27.80 Y-6.59 E438.8824
G1 X-27.80 Y-77.78 E441.0181
G1 X80.93 Y84.91 F5000
G1 X176.54 Y84.91 E443.8866 F1200
G1 X176.54 Y144.54 E445.6753
G1 X80.93 Y144.54 E448.5438
G1 X80.93 Y84.91 E450.3324
G1 X-16.65 Y74.49 F5000
G1 X32.26 Y74.49 E451.7997 F1200
G1 X32.26 Y117.93 E453.1030
G1 X-16.65 Y117.93 E454.5703
G1 X-16.65 Y74.49 E455.8736
G1 X26.73 Y-99.87 F5000
G1 X123.71 Y-99.87 E458.7830 F1200
G1 X123.71 Y-21.00 E461.1492
G1 X26.73 Y-21.00 E464.0586
G1 X26.73 Y-99.87 E466.4248
G1 X41.80 Y72.79 F5000
G1 X64.60 Y72.79 E467.1090 F1200
G1 X64.60 Y111.53 E468.2713
G1 X41.80 Y111.53 E468.9555
G1 X41.80 Y72.79 E470.1179
; Layer 5
G1 Z1.20 F5000
G1 X59.47 Y-38.73 F5000
G1 X96.79 Y-38.73 E471.2375 F1200
G1 X96.79 Y-4.24 E472.2722
G1 X59.47 Y-4.24 E473.3918
G1 X59.47 Y-38.73 E474.4265
G1 X-63.83 Y-7.81 F5000
G1 X-25.26 Y-7.81 E475.5836 F1200
G1 X-25.26 Y34.43 E476.8507
G1 X-63.83 Y34.43 E478.0078
G1 X-63.83 Y-7.81 E479.2749
G1 X-35.01 Y75.63 F5000
G1 X-7.29 Y75.63 E480.1064 F1200
G1 X-7.29 Y100.01 E480.8376
G1 X-35.01 Y100.01 E481.6692
G1 X-35.01 Y75.63 E482.4004
G1 X-7.48 Y24.12 F5000
G1 X17.75 Y24.12 E483.1572 F1200
G1 X17.75 Y75.14 E484.6880
G1 X-7.48 Y75.14 E485.4449
G1 X-7.48 Y24.12 E486.9757
G1 X-57.75 Y73.50 F5000
G1 X-45.77 Y73.50 E487.3350 F1200
G1 X-45.77 Y99.80 E488.1239
G1 X-57.75 Y99.80 E488.4832
G1 X-57.75 Y73.50 E489.2721
G1 X-90.18 Y-73.61 F5000
G1 X-66.40 Y-73.61 E489.9855 F1200
G1 X-66.40 Y-55.33 E490.5340
G1 X-90.18 Y-55.33 E491.2474
G1 X-90.18 Y-73.61 E491.7959
G1 X22.35 Y20.59 F5000
G1 X89.28 Y20.59 E493.8039 F1200
G1 X89.28 Y57.17 E494.9014
G1 X22.35 Y57.17 E496.9094
G1 X22.35 Y20.59 E498.0069
G1 X-23.67 Y-16.60 F5000
G1 X7.44 Y-16.60 E498.9404 F1200
G1 X7.44 Y31.57 E500.3854
G1 X-23.67 Y31.57 E501.3188
G1 X-23.67 Y-16.60 E502.7639
G1 X-33.23 Y92.01 F5000
G1 X-20.49 Y92.01 E503.1461 F1200
G1 X-20.49 Y117.57 E503.9128
G1 X-33.23 Y117.57 E504.2949
G1 X-33.23 Y92.01 E505.0617
G1 X-26.71 Y-1.87 F5000
G1 X-15.59 Y-1.87 E505.3952 F1200
G1 X-15.59 Y14.42 E505.8839
G1 X-26.71 Y14.42 E506.2175
G1 X-26.71 Y-1.87 E506.7061
G1 X-92.98 Y-52.24 F5000
G1 X-63.37 Y-52.24 E507.5944 F1200
G1 X-63.37 Y5.34 E509.3218
G1 X-92.98 Y5.34 E510.2100
G1 X-92.98 Y-52.24 E511.9375
G1 X84.89 Y26.65 F5000
G1 X101.64 Y26.65 E512.4400 F1200
G1 X101.64 Y54.17 E513.2656
G1 X84.89 Y54.17 E513.7681
G1 X84.89 Y26.65 E514.5937
G1 X48.84 Y-5.09 F5000
G1 X73.88 Y-5.09 E515.3450 F1200
G1 X73.88 Y14.23 E515.9245
G1 X48.84 Y14.23 E516.6758
G1 X48.84 Y-5.09 E517.2553
G1 X92.76 Y9.33 F5000
G1 X124.40 Y9.33 E518.2045 F1200
G1 X124.40 Y30.15 E518.8292
G1 X92.76 Y30.15 E519.7783
G1 X92.76 Y9.33 E520.4031
G1 X-112.44 Y4.34 F5000
G1 X-51.12 Y4.34 E522.2424 F1200
G1 X-51.12 Y49.69 E523.6028
G1 X-112.44 Y49.69 E525.4421
G1 X-112.44 Y4.34 E526.8024
G1 X-27.80 Y-77.78 F5000
G1 X38.33 Y-77.78 E528.7863 F1200
G1 X38.33 Y-6.59 E530.9221
G1 X-27.80 Y-6.59 E532.9059
G1 X-27.80 Y-77.78 E535.0417
G1 X80.93 Y84.91 F5000
G1 X176.54 Y84.91 E537.9102 F1200
G1 X176.54 Y144.54 E539.6988
G1 X80.93 Y144.54 E542.5674
G1 X80.93 Y84.91 E544.3560
G1 X-16.65 Y74.49 F5000
G1 X32.26 Y74.49 E545.8233 F1200
G1 X32.26 Y117.93 E547.1266
G1 X-16.65 Y117.93 E548.5939
G1 X-16.65 Y74.49 E549.8972
G1 X26.73 Y-99.87 F5000
G1 X123.71 Y-99.87 E552.8066 F1200
G1 X123.71 Y-21.00 E555.1728
G1 X26.73 Y-21.00 E558.0822
G1 X26.73 Y-99.87 E560.4484
G1 X41.80 Y72.79 F5000
G1 X64.60 Y72.79 E561.1325 F1200
G1 X64.60 Y111.53 E562.2949
G1 X41.80 Y111.53 E562.9791
G1 X41.80 Y72.79 E564.1415
; Layer 6
G1 Z1.40 F5000
G1 X59.47 Y-38.73 F5000
G1 X96.79 Y-38.73 E565.2610 F1200
G1 X96.79 Y-4.24 E566.2958
G1 X59.47 Y-4.24 E567.4153
G1 X59.47 Y-38.73 E568.4501
G1 X-63.83 Y-7.81 F5000
G1 X-25.26 Y-7.81 E569.6072 F1200
G1 X-25.26 Y34.43 E570.8743
G1 X-63.83 Y34.43 E572.0314
G1 X-63.83 Y-7.81 E573.2985
G1 X-35.01 Y75.63 F5000
G1 X-7.29 Y75.63 E574.1300 F1200
G1 X-7.29 Y100.01 E574.8612
G1 X-35.01 Y100.01 E575.6928
G1 X-35.01 Y75.63 E576.4239
G1 X-7.48 Y24.12 F5000
G1 X17.75 Y24.12 E577.1808 F1200
G1 X17.75 Y75.14 E578.7116
G1 X-7.48 Y75.14 E579.4685
G1 X-7.48 Y24.12 E580.9992
G1 X-57.75 Y73.50 F5000
G1 X-45.77 Y73.50 E581.3586 F1200
G1 X-45.77 Y99.80 E582.1474
G1 X-57.75 Y99.80 E582.5068
G1 X-57.75 Y73.50 E583.2956
G1 X-90.18 Y-73.61 F5000
G1 X-66.40 Y-73.61 E584.0091 F1200
G1 X-66.40 Y-55.33 E584.5575
G1 X-90.18 Y-55.33 E585.2710
G1 X-90.18 Y-73.61 E585.8195
G1 X22.35 Y20.59 F5000
G1 X89.28 Y20.59 E587.8274 F1200
G1 X89.28 Y57.17 E588.9250
G1 X22.35 Y57.17 E590.9330
G1 X22.35 Y20.59 E592.0305
G1 X-23.67 Y-16.60 F5000
G1 X7.44 Y-16.60 E592.9639 F1200
G1 X7.44 Y31.57 E594.4090
G1 X-23.67 Y31.57 E595.3424
G1 X-23.67 Y-16.60 E596.7875
G1 X-33.23 Y92.01 F5000
G1 X-20.49 Y92.01 E597.1696 F1200
G1 X-20.49 Y117.57 E597.9364
G1 X-33.23 Y117.57 E598.3185
G1 X-33.23 Y92.01 E599.0852
G1 X-26.71 Y-1.87 F5000
G1 X-15.59 Y-1.87 E599.4188 F1200
G1 X-15.59 Y14.42 E599.9075
G1 X-26.71 Y14.42 E600.2411
G1 X-26.71 Y-1.87 E600.7297
G1 X-92.98 Y-52.24 F5000
G1 X-63.37 Y-52.24 E601.6179 F1200
G1 X-63.37 Y5.34 E603.3454
G1 X-92.98 Y5.34 E604.2336
G1 X-92.98 Y-52.24 E605.9611
G1 X84.89 Y26.65 F5000
G1 X101.64 Y26.65 E606.4636 F1200
G1 X101.64 Y54.17 E607.2892
G1 X84.89 Y54.17 E607.7917
G1 X84.89 Y26.65 E608.6173
G1 X48.84 Y-5.09 F5000
G1 X73.88 Y-5.09 E609.3686 F1200
G1 X73.88 Y14.23 E609.9481
G1 X48.84 Y14.23 E610.6994
G1 X48.84 Y-5.09 E611.2789
G1 X92.76 Y9.33 F5000
G1 X124.40 Y9.33 E612.2280 F1200
G1 X124.40 Y30.15 E612.8528
G1 X92.76 Y30.15 E613.8019
G1 X92.76 Y9.33 E614.4266
G1 X-112.44 Y4.34 F5000
G1 X-51.12 Y4.34 E616.2660 F1200
G1 X-51.12 Y49.69 E617.6263
G1 X-112.44 Y49.69 E619.4657
G1 X-112.44 Y4.34 E620.8260
G1 X-27.80 Y-77.78 F5000
G1 X38.33 Y-77.78 E622.8099 F1200
G1 X38.33 Y-6.59 E624.9456
G1 X-27.80 Y-6.59 E626.9295
G1 X-27.80 Y-77.78 E629.0653
G1 X80.93 Y84.91 F5000
G1 X176.54 Y84.91 E631.9338 F1200
G1 X176.54 Y144.54 E633.7224
G1 X80.93 Y144.54 E636.5909
G1 X80.93 Y84.91 E638.3796
G1 X-16.65 Y74.49 F5000
G1 X32.26 Y74.49 E639.8469 F1200
G1 X32.26 Y117.93 E641.1502
G1 X-16.65 Y117.93 E642.6175
G1 X-16.65 Y74.49 E643.9208
G1 X26.73 Y-99.87 F5000
G1 X123.71 Y-99.87 E646.8302 F1200
G1 X123.71 Y-21.00 E649.1963
G1 X26.73 Y-21.00 E652.1058
G1 X26.73 Y-99.87 E654.4719
G1 X41.80 Y72.79 F5000
G1 X64.60 Y72.79 E655.1561 F1200
G1 X64.60 Y111.53 E656.3185
G1 X41.80 Y111.53 E657.0027
G1 X41.80 Y72.79 E658.1650
; Layer 7
G1 Z1.60 F5000
G1 X59.47 Y-38.73 F5000
G1 X96.79 Y-38.73 E659.2846 F1200
G1 X96.79 Y-4.24 E660.3194
G1 X59.47 Y-4.24 E661.4389
G1 X59.47 Y-38.73 E662.4737
G1 X-63.83 Y-7.81 F5000
G1 X-25.26 Y-7.81 E663.6308 F1200
G1 X-25.26 Y34.43 E664.8979
G1 X-63.83 Y34.43 E666.0550
G1 X-63.83 Y-7.81 E667.3221
G1 X-35.01 Y75.63 F5000
G1 X-7.29 Y75.63 E668.1536 F1200
G1 X-7.29 Y100.01 E668.8848
G1 X-35.01 Y100.01 E669.7163
G1 X-35.01 Y75.63 E670.4475
G1 X-7.48 Y24.12 F5000
G1 X17.75 Y24.12 E671.2044 F1200
G1 X17.75 Y75.14 E672.7352
G1 X-7.48 Y75.14 E673.4921
G1 X-7.48 Y24.12 E675.0228
G1 X-57.75 Y73.50 F5000
G1 X-45.77 Y73.50 E675.3821 F1200
G1 X-45.77 Y99.80 E676.1710
G1 X-57.75 Y99.80 E676.5303
G1 X-57.75 Y73.50 E677.3192
G1 X-90.18 Y-73.61 F5000
G1 X-66.40 Y-73.61 E678.0326 F1200
G1 X-66.40 Y-55.33 E678.5811
G1 X-90.18 Y-55.33 E679.2945
G1 X-90.18 Y-73.61 E679.8430
G1 X22.35 Y20.59 F5000
G1 X89.28 Y20.59 E681.8510 F1200
G1 X89.28 Y57.17 E682.9486
G1 X22.35 Y57.17 E684.9565
G1 X22.35 Y20.59 E686.0541
G1 X-23.67 Y-16.60 F5000
G1 X7.44 Y-16.60 E686.9875 F1200
G1 X7.44 Y31.57 E688.4326
G1 X-23.67 Y31.57 E689.3660
G1 X-23.67 Y-16.60 E690.8110
G1 X-33.23 Y92.01 F5000
G1 X-20.49 Y92.01 E691.1932 F1200
G1 X-20.49 Y117.57 E691.9599
G1 X-33.23 Y117.57 E692.3421
G1 X-33.23 Y92.01 E693.1088
G1 X-26.71 Y-1.87 F5000
G1 X-15.59 Y-1.87 E693.4424 F1200
G1 X-15.59 Y14.42 E693.9311
G1 X-26.71 Y14.42 E694.2646
G1 X-26.71 Y-1.87 E694.7533
G1 X-92.98 Y-52.24 F5000
G1 X-63.37 Y-52.24 E695.6415 F1200
G1 X-63.37 Y5.34 E697.3690
G1 X-92.98 Y5.34 E698.2572
G1 X-92.98 Y-52.24 E699.9847
G1 X84.89 Y26.65 F5000
G1 X101.64 Y26.65 E700.4871 F1200
G1 X101.64 Y54.17 E701.3128
G1 X84.89 Y54.17 E701.8153
G1 X84.89 Y26.65 E702.6409
G1 X48.84 Y-5.09 F5000
G1 X73.88 Y-5.09 E703.3921 F1200
G1 X73.88 Y14.23 E703.9717
G1 X48.84 Y14.23 E704.7229
G1 X48.84 Y-5.09 E705.3025
G1 X92.76 Y9.33 F5000
G1 X124.40 Y9.33 E706.2516 F1200
G1 X124.40 Y30.15 E706.8763
G1 X92.76 Y30.15 E707.8255
G1 X92.76 Y9.33 E708.4502
G1 X-112.44 Y4.34 F5000
G1 X-51.12 Y4.34 E710.2896 F1200
G1 X-51.12 Y49.69 E711.6499
G1 X-112.44 Y49.69 E713.4893
G1 X-112.44 Y4.34 E714.8496
G1 X-27.80 Y-77.78 F5000
G1 X38.33 Y-77.78 E716.8335 F1200
G1 X38.33 Y-6.59 E718.9692
G1 X-27.80 Y-6.59 E720.9531
G1 X-27.80 Y-77.78 E723.0888
G1 X80.93 Y84.91 F5000
G1 X176.54 Y84.91 E725.9573 F1200
G1 X176.54 Y144.54 E727.7460
G1 X80.93 Y144.54 E730.6145
G1 X80.93 Y84.91 E732.4032
G1 X-16.65 Y74.49 F5000
G1 X32.26 Y74.49 E733.8705 F1200
G1 X32.26 Y117.93 E735.1737
G1 X-16.65 Y117.93 E736.6410
G1 X-16.65 Y74.49 E737.9443
G1 X26.73 Y-99.87 F5000
G1 X123.71 Y-99.87 E740.8538 F1200
G1 X123.71 Y-21.00 E743.2199
G1 X26.73 Y-21.00 E746.1294
G1 X26.73 Y-99.87 E748.4955
G1 X41.80 Y72.79 F5000
G1 X64.60 Y72.79 E749.1797 F1200
G1 X64.60 Y111.53 E750.3421
G1 X41.80 Y111.53 E751.0262
G1 X41.80 Y72.79 E752.1886
; Layer 8
G1 Z1.80 F5000
G1 X59.47 Y-38.73 F5000
G1 X96.79 Y-38.73 E753.3082 F1200
G1 X96.79 Y-4.24 E754.3429
G1 X59.47 Y-4.24 E755.4625
G1 X59.47 Y-38.73 E756.4972
G1 X-63.83 Y-7.81 F5000
G1 X-25.26 Y-7.81 E757.6544 F1200
G1 X-25.26 Y34.43 E758.9214
G1 X-63.83 Y34.43 E760.0786
G1 X-63.83 Y-7.81 E761.3456
G1 X-35.01 Y75.63 F5000
G1 X-7.29 Y75.63 E762.1772 F1200
G1 X-7.29 Y100.01 E762.9084
G1 X-35.01 Y100.01 E763.7399
G1 X-35.01 Y75.63 E764.4711
G1 X-7.48 Y24.12 F5000
G1 X17.75 Y24.12 E765.2280 F1200
G1 X17.75 Y75.14 E766.7587
G1 X-7.48 Y75.14 E767.5156
G1 X-7.48 Y24.12 E769.0464
G1 X-57.75 Y73.50 F5000
G1 X-45.77 Y73.50 E769.4057 F1200
G1 X-45.77 Y99.80 E770.1946
G1 X-57.75 Y99.80 E770.5539
G1 X-57.75 Y73.50 E771.3428
G1 X-90.18 Y-73.61 F5000
G1 X-66.40 Y-73.61 E772.0562 F1200
G1 X-66.40 Y-55.33 E772.6047
G1 X-90.18 Y-55.33 E773.3181
G1 X-90.18 Y-73.61 E773.8666
G1 X22.35 Y20.59 F5000
G1 X89.28 Y20.59 E775.8746 F1200
G1 X89.28 Y57.17 E776.9721
G1 X22.35 Y57.17 E778.9801
G1 X22.35 Y20.59 E780.0777
G1 X-23.67 Y-16.60 F5000
G1 X7.44 Y-16.60 E781.0111 F1200
G1 X7.44 Y31.57 E782.4561
G1 X-23.67 Y31.57 E783.3896
G1 X-23.67 Y-16.60 E784.8346
G1 X-33.23 Y92.01 F5000
G1 X-20.49 Y92.01 E785.2168 F1200
G1 X-20.49 Y117.57 E785.9835
G1 X-33.23 Y117.57 E786.3657
G1 X-33.23 Y92.01 E787.1324
G1 X-26.71 Y-1.87 F5000
G1 X-15.59 Y-1.87 E787.4660 F1200
G1 X-15.59 Y14.42 E787.9546
G1 X-26.71 Y14.42 E788.2882
G1 X-26.71 Y-1.87 E788.7769
G1 X-92.98 Y-52.24 F5000
G1 X-63.37 Y-52.24 E789.6651 F1200
G1 X-63.37 Y5.34 E791.3926
G1 X-92.98 Y5.34 E792.2808
G1 X-92.98 Y-52.24 E794.0082
G1 X84.89 Y26.65 F5000
G1 X101.64 Y26.65 E794.5107 F1200
G1 X101.64 Y54.17 E795.3364
G1 X84.89 Y54.17 E795.8388
G1 X84.89 Y26.65 E796.6645
G1 X48.84 Y-5.09 F5000
G1 X73.88 Y-5.09 E797.4157 F1200
G1 X73.88 Y14.23 E797.9953
G1 X48.84 Y14.23 E798.7465
G1 X48.84 Y-5.09 E799.3260
G1 X92.76 Y9.33 F5000
G1 X124.40 Y9.33 E800.2752 F1200
G1 X124.40 Y30.15 E800.8999
G1 X92.76 Y30.15 E801.8491
G1 X92.76 Y9.33 E802.4738
G1 X-112.44 Y4.34 F5000
G1 X-51.12 Y4.34 E804.3132 F1200
G1 X-51.12 Y49.69 E805.6735
G1 X-112.44 Y49.69 E807.5129
G1 X-112.44 Y4.34 E808.8732
G1 X-27.80 Y-77.78 F5000
G1 X38.33 Y-77.78 E810.8571 F1200
G1 X38.33 Y-6.59 E812.9928
G1 X-27.80 Y-6.59 E814.9767
G1 X-27.80 Y-77.78 E817.1124
G1 X80.93 Y84.91 F5000
G1 X176.54 Y84.91 E819.9809 F1200
G1 X176.54 Y144.54 E821.7696
G1 X80.93 Y144.54 E824.6381
G1 X80.93 Y84.91 E826.4267
G1 X-16.65 Y74.49 F5000
G1 X32.26 Y74.49 E827.8940 F1200
G1 X32.26 Y117.93 E829.1973
G1 X-16.65 Y117.93 E830.6646
G1 X-16.65 Y74.49 E831.9679
G1 X26.73 Y-99.87 F5000
G1 X123.71 Y-99.87 E834.8773 F1200
G1 X123.71 Y-21.00 E837.2435
G1 X26.73 Y-21.00 E840.1529
G1 X26.73 Y-99.87 E842.5191
G1 X41.80 Y72.79 F5000
G1 X64.60 Y72.79 E843.2033 F1200
G1 X64.60 Y111.53 E844.3657
G1 X41.80 Y111.53 E845.0498
G1 X41.80 Y72.79 E846.2122
; Layer 9
G1 Z2.00 F5000
G1 X59.47 Y-38.73 F5000
G1 X96.79 Y-38.73 E847.3318 F1200
G1 X96.79 Y-4.24 E848.3665
G1 X59.47 Y-4.24 E849.4861
G1 X59.47 Y-38.73 E850.5208
G1 X-63.83 Y-7.81 F5000
G1 X-25.26 Y-7.81 E851.6779 F1200
G1 X-25.26 Y34.43 E852.9450
G1 X-63.83 Y34.43 E854.1021
G1 X-63.83 Y-7.81 E855.3692
G1 X-35.01 Y75.63 F5000
G1 X-7.29 Y75.63 E856.2008 F1200
G1 X-7.29 Y100.01 E856.9319
G1 X-35.01 Y100.01 E857.7635
G1 X-35.01 Y75.63 E858.4947
G1 X-7.48 Y24.12 F5000
G1 X17.75 Y24.12 E859.2516 F1200
G1 X17.75 Y75.14 E860.7823
G1 X-7.48 Y75.14 E861.5392
G1 X-7.48 Y24.12 E863.0700
G1 X-57.75 Y73.50 F5000
G1 X-45.77 Y73.50 E863.4293 F1200
G1 X-45.77 Y99.80 E864.2182
G1 X-57.75 Y99.80 E864.5775
G1 X-57.75 Y73.50 E865.3664
G1 X-90.18 Y-73.61 F5000
G1 X-66.40 Y-73.61 E866.0798 F1200
G1 X-66.40 Y-55.33 E866.6283
G1 X-90.18 Y-55.33 E867.3417
G1 X-90.18 Y-73.61 E867.8902
G1 X22.35 Y20.59 F5000
G1 X89.28 Y20.59 E869.8982 F1200
G1 X89.28 Y57.17 E870.9957
G1 X22.35 Y57.17 E873.0037
G1 X22.35 Y20.59 E874.1012
G1 X-23.67 Y-16.60 F5000
G1 X7.44 Y-16.60 E875.0347 F1200
G1 X7.44 Y31.57 E876.4797
G1 X-23.67 Y31.57 E877.4132
G1 X-23.67 Y-16.60 E878.8582
G1 X-33.23 Y92.01 F5000
G1 X-20.49 Y92.01 E879.2404 F1200
G1 X-20.49 Y117.57 E880.0071
G1 X-33.23 Y117.57 E880.3893
G1 X-33.23 Y92.01 E881.1560
G1 X-26.71 Y-1.87 F5000
G1 X-15.59 Y-1.87 E881.4896 F1200
G1 X-15.59 Y14.42 E881.9782
G1 X-26.71 Y14.42 E882.3118
G1 X-26.71 Y-1.87 E882.8004
G1 X-92.98 Y-52.24 F5000
G1 X-63.37 Y-52.24 E883.6887 F1200
G1 X-63.37 Y5.34 E885.4161
G1 X-92.98 Y5.34 E886.3044
G1 X-92.98 Y-52.24 E888.0318
G1 X84.89 Y26.65 F5000
G1 X101.64 Y26.65 E888.5343 F1200
G1 X101.64 Y54.17 E889.3599
G1 X84.89 Y54.17 E889.8624
G1 X84.89 Y26.65 E890.6881
G1 X48.84 Y-5.09 F5000
G1 X73.88 Y-5.09 E891.4393 F1200
G1 X73.88 Y14.23 E892.0188
G1 X48.84 Y14.23 E892.7701
G1 X48.84 Y-5.09 E893.3496
G1 X92.76 Y9.33 F5000
G1 X124.40 Y9.33 E894.2988 F1200
G1 X124.40 Y30.15 E894.9235
G1 X92.76 Y30.15 E895.8727
G1 X92.76 Y9.33 E896.4974
G1 X-112.44 Y4.34 F5000
G1 X-51.12 Y4.34 E898.3368 F1200
G1 X-51.12 Y49.69 E899.6971
G1 X-112.44 Y49.69 E901.5365
G1 X-112.44 Y4.34 E902.8968
G1 X-27.80 Y-77.78 F5000
G1 X38.33 Y-77.78 E904.8806 F1200
G1 X38.33 Y-6.59 E907.0164
G1 X-27.80 Y-6.59 E909.0003
G1 X-27.80 Y-77.78 E911.1360
G1 X80.93 Y84.91 F5000
G1 X176.54 Y84.91 E914.0045 F1200
G1 X176.54 Y144.54 E915.7932
G1 X80.93 Y144.54 E918.6617
G1 X80.93 Y84.91 E920.4503
G1 X-16.65 Y74.49 F5000
G1 X32.26 Y74.49 E921.9176 F1200
G1 X32.26 Y117.93 E923.2209
G1 X-16.65 Y117.93 E924.6882
G1 X-16.65 Y74.49 E925.9915
G1 X26.73 Y-99.87 F5000
G1 X123.71 Y-99.87 E928.9009 F1200
G1 X123.71 Y-21.00 E931.2671
G1 X26.73 Y-21.00 E934.1765
G1 X26.73 Y-99.87 E936.5427
G1 X41.80 Y72.79 F5000
G1 X64.60 Y72.79 E937.2268 F1200
G1 X64.60 Y111.53 E938.3892
G1 X41.80 Y111.53 E939.0734
G1 X41.80 Y72.79 E940.2358

; --- Riemann Anti-Resonance Truss ---
G1 Z0.40 F5000
G1 E939.2358 F2400 ; Retract
G1 X-100.00 Y-100.00 F5000
G1 E940.2358 F2400 ; Un-retract
G1 X3900.00 Y-100.00 E1100.2358 F1000
G1 E1099.2358 F2400 ; Retract
G1 X-100.00 Y-100.00 F5000
G1 E1100.2358 F2400 ; Un-retract
G1 X1900.00 Y1900.00 E1213.3729 F1000
G1 E1212.3729 F2400 ; Retract
G1 X-100.00 Y-100.00 F5000
G1 E1213.3729 F2400 ; Un-retract
G1 X900.00 Y900.00 E1269.9414 F1000
G1 E1268.9414 F2400 ; Retract
G1 X-100.00 Y-100.00 F5000
G1 E1269.9414 F2400 ; Un-retract
G1 X2900.00 Y900.00 E1396.4325 F1000
G1 E1395.4325 F2400 ; Retract
G1 X3900.00 Y-100.00 F5000
G1 E1396.4325 F2400 ; Un-retract
G1 X1900.00 Y1900.00 E1509.5696 F1000
G1 E1508.5696 F2400 ; Retract
G1 X3900.00 Y-100.00 F5000
G1 E1509.5696 F2400 ; Un-retract
G1 X900.00 Y900.00 E1636.0607 F1000
G1 E1635.0607 F2400 ; Retract
G1 X3900.00 Y-100.00 F5000
G1 E1636.0607 F2400 ; Un-retract
G1 X2900.00 Y900.00 E1692.6293 F1000
G1 E1691.6293 F2400 ; Retract
G1 X1900.00 Y1900.00 F5000
G1 E1692.6293 F2400 ; Un-retract
G1 X900.00 Y900.00 E1749.1978 F1000
G1 E1748.1978 F2400 ; Retract
G1 X1900.00 Y1900.00 F5000
G1 E1749.1978 F2400 ; Un-retract
G1 X2900.00 Y900.00 E1805.7663 F1000
G1 E1804.7663 F2400 ; Retract
G1 X900.00 Y900.00 F5000
G1 E1805.7663 F2400 ; Un-retract
G1 X2900.00 Y900.00 E1885.7663 F1000

; --- End Code ---
G1 E1882.7663 F2400
G91 ; Relative positioning
G1 Z10 F5000 ; Lift nozzle clear
G90 ; Absolute positioning
G28 X0 Y0 ; Home X/Y
M104 S0 ; Turn off extruder
M140 S0 ; Turn off bed
M84 ; Disable motors
